CUTE-1 (CO-55)          
1 27844U 03031E   26114.99932729  .00000245  00000+0  12496-3 0  9991
2 27844  98.6757 124.2245 0009205 347.5450  12.5500 14.24301171184104
CUBESAT XI-IV (CO-57)   
1 27848U 03031J   26115.45318900  .00000236  00000+0  12291-3 0  9999
2 27848  98.6791 124.4281 0009461   4.9021 355.2248 14.23591430183877
CUBESAT XI-V            
1 28895U 05043F   26115.40187728  .00001332  00000+0  21784-3 0  9999
2 28895  98.2923 269.9383 0014311  18.3896 341.7825 14.72487588 93985
CUTE-1.7+APD II (CO-65) 
1 32785U 08021C   26115.87007604  .00006042  00000+0  38663-3 0  9993
2 32785  97.8257  96.2312 0008258 194.9719 165.1266 15.08944870977300
CANX-2                  
1 32790U 08021H   26115.51250716  .00002974  00000+0  21273-3 0  9993
2 32790  97.8608  94.2941 0009256 214.1945 145.8686 15.05226795976886
SEEDS II (CO-66)        
1 32791U 08021J   26115.48452566  .00017882  00000+0  60060-3 0  9998
2 32791  97.7533 110.9451 0004924 116.4100 243.7646 15.30904950979228
SWISSCUBE               
1 35932U 09051B   26115.69062747  .00000913  00000+0  19044-3 0  9996
2 35932  98.4066  22.6611 0007422  26.1773 333.9801 14.62374931881482
BEESAT-1                
1 35933U 09051C   26115.74149487  .00000766  00000+0  16386-3 0  9992
2 35933  98.3995  22.4572 0006160  40.8365 319.3296 14.61630477881525
ITUPSAT1                
1 35935U 09051E   26115.68660347  .00000700  00000+0  15488-3 0  9990
2 35935  98.4080  21.6484 0008497  47.9628 312.2293 14.60357466881073
TISAT 1                 
1 36799U 10035E   26115.81938682  .00022703  00000+0  79083-3 0  9996
2 36799  98.0676  57.8202 0004712  80.5731 279.6040 15.29673687859693
AEROCUBE 4.5A           
1 38767U 12048K   26115.62706318  .00140462  00000+0  10003-2 0  9996
2 38767  64.6323 215.3959 0025573 213.9715 145.9800 15.72727017364347
STRAND-1                
1 39090U 13009E   26115.76951065  .00000252  00000+0  99175-4 0  9991
2 39090  98.3915 297.2968 0009254  34.9138 325.2654 14.37130836689533
BRITE-AUSTRIA           
1 39091U 13009F   26115.48133348  .00000171  00000+0  72827-4 0  9992
2 39091  98.3985 296.2244 0010956  42.9850 317.2191 14.36520130689488
NEE-01 PEGASO           
1 39151U 13018B   26115.33814250  .00002782  00000+0  27052-3 0  9990
2 39151  98.1148 257.7750 0012068 343.8983  16.1851 14.93393609702817
POPACS 2                
1 39269U 13055E   26115.68293808  .00016412  00000+0  28065-3 0  9999
2 39269  80.9940 204.2358 0422180   2.5925 357.7332 14.89898678655391
POPACS 3                
1 39270U 13055F   26115.45818553  .00009566  00000+0  23186-3 0  9997
2 39270  81.0004 286.3110 0555578 230.3820 124.7084 14.54824082630889
ZACUBE-1 (TSHEPISOSAT)  
1 39417U 13066B   26115.87574142  .00005869  00000+0  45820-3 0  9992
2 39417  97.8121  77.9322 0044223  67.9289 292.6622 15.00744100672882
