[{"OBJECT_NAME":"CUTE-1 (CO-55)","OBJECT_ID":"2003-031E","EPOCH":"2026-04-24T23:59:01.877856","MEAN_MOTION":14.24301171,"ECCENTRICITY":0.00092051,"INCLINATION":98.6757,"RA_OF_ASC_NODE":124.2245,"ARG_OF_PERICENTER":347.545,"MEAN_ANOMALY":12.55,"EPHEMERIS_TYPE":0,"CLASSIFICATION_TYPE":"U","NORAD_CAT_ID":27844,"ELEMENT_SET_NO":999,"REV_AT_EPOCH":18410,"BSTAR":0.00012495833,"MEAN_MOTION_DOT":2.45e-6,"MEAN_MOTION_DDOT":0},{"OBJECT_NAME":"CUBESAT XI-IV (CO-57)","OBJECT_ID":"2003-031J","EPOCH":"2026-04-25T10:52:35.529600","MEAN_MOTION":14.2359143,"ECCENTRICITY":0.0009461,"INCLINATION":98.6791,"RA_OF_ASC_NODE":124.4281,"ARG_OF_PERICENTER":4.9021,"MEAN_ANOMALY":355.2248,"EPHEMERIS_TYPE":0,"CLASSIFICATION_TYPE":"U","NORAD_CAT_ID":27848,"ELEMENT_SET_NO":999,"REV_AT_EPOCH":18387,"BSTAR":0.00012291,"MEAN_MOTION_DOT":2.36e-6,"MEAN_MOTION_DDOT":0},{"OBJECT_NAME":"CUBESAT XI-V","OBJECT_ID":"2005-043F","EPOCH":"2026-04-25T09:38:42.196992","MEAN_MOTION":14.72487588,"ECCENTRICITY":0.0014311,"INCLINATION":98.2923,"RA_OF_ASC_NODE":269.9383,"ARG_OF_PERICENTER":18.3896,"MEAN_ANOMALY":341.7825,"EPHEMERIS_TYPE":0,"CLASSIFICATION_TYPE":"U","NORAD_CAT_ID":28895,"ELEMENT_SET_NO":999,"REV_AT_EPOCH":9398,"BSTAR":0.00021784,"MEAN_MOTION_DOT":1.332e-5,"MEAN_MOTION_DDOT":0},{"OBJECT_NAME":"CUTE-1.7+APD II (CO-65)","OBJECT_ID":"2008-021C","EPOCH":"2026-04-25T20:52:54.569856","MEAN_MOTION":15.0894487,"ECCENTRICITY":0.0008258,"INCLINATION":97.8257,"RA_OF_ASC_NODE":96.2312,"ARG_OF_PERICENTER":194.9719,"MEAN_ANOMALY":165.1266,"EPHEMERIS_TYPE":0,"CLASSIFICATION_TYPE":"U","NORAD_CAT_ID":32785,"ELEMENT_SET_NO":999,"REV_AT_EPOCH":97730,"BSTAR":0.00038663,"MEAN_MOTION_DOT":6.042e-5,"MEAN_MOTION_DDOT":0},{"OBJECT_NAME":"CANX-2","OBJECT_ID":"2008-021H","EPOCH":"2026-04-25T12:18:00.618624","MEAN_MOTION":15.05226795,"ECCENTRICITY":0.0009256,"INCLINATION":97.8608,"RA_OF_ASC_NODE":94.2941,"ARG_OF_PERICENTER":214.1945,"MEAN_ANOMALY":145.8686,"EPHEMERIS_TYPE":0,"CLASSIFICATION_TYPE":"U","NORAD_CAT_ID":32790,"ELEMENT_SET_NO":999,"REV_AT_EPOCH":97688,"BSTAR":0.00021273,"MEAN_MOTION_DOT":2.974e-5,"MEAN_MOTION_DDOT":0},{"OBJECT_NAME":"SEEDS II (CO-66)","OBJECT_ID":"2008-021J","EPOCH":"2026-04-25T11:37:43.017024","MEAN_MOTION":15.3090495,"ECCENTRICITY":0.0004924,"INCLINATION":97.7533,"RA_OF_ASC_NODE":110.9451,"ARG_OF_PERICENTER":116.41,"MEAN_ANOMALY":243.7646,"EPHEMERIS_TYPE":0,"CLASSIFICATION_TYPE":"U","NORAD_CAT_ID":32791,"ELEMENT_SET_NO":999,"REV_AT_EPOCH":97922,"BSTAR":0.0006006,"MEAN_MOTION_DOT":0.00017882,"MEAN_MOTION_DDOT":0},{"OBJECT_NAME":"SWISSCUBE","OBJECT_ID":"2009-051B","EPOCH":"2026-04-25T16:34:30.213408","MEAN_MOTION":14.62374931,"ECCENTRICITY":0.0007422,"INCLINATION":98.4066,"RA_OF_ASC_NODE":22.6611,"ARG_OF_PERICENTER":26.1773,"MEAN_ANOMALY":333.9801,"EPHEMERIS_TYPE":0,"CLASSIFICATION_TYPE":"U","NORAD_CAT_ID":35932,"ELEMENT_SET_NO":999,"REV_AT_EPOCH":88148,"BSTAR":0.00019044,"MEAN_MOTION_DOT":9.13e-6,"MEAN_MOTION_DDOT":0},{"OBJECT_NAME":"BEESAT-1","OBJECT_ID":"2009-051C","EPOCH":"2026-04-25T17:47:45.156768","MEAN_MOTION":14.61630477,"ECCENTRICITY":0.000616,"INCLINATION":98.3995,"RA_OF_ASC_NODE":22.4572,"ARG_OF_PERICENTER":40.8365,"MEAN_ANOMALY":319.3296,"EPHEMERIS_TYPE":0,"CLASSIFICATION_TYPE":"U","NORAD_CAT_ID":35933,"ELEMENT_SET_NO":999,"REV_AT_EPOCH":88152,"BSTAR":0.00016386,"MEAN_MOTION_DOT":7.66e-6,"MEAN_MOTION_DDOT":0},{"OBJECT_NAME":"ITUPSAT1","OBJECT_ID":"2009-051E","EPOCH":"2026-04-25T16:28:42.539808","MEAN_MOTION":14.60357466,"ECCENTRICITY":0.0008497,"INCLINATION":98.408,"RA_OF_ASC_NODE":21.6484,"ARG_OF_PERICENTER":47.9628,"MEAN_ANOMALY":312.2293,"EPHEMERIS_TYPE":0,"CLASSIFICATION_TYPE":"U","NORAD_CAT_ID":35935,"ELEMENT_SET_NO":999,"REV_AT_EPOCH":88107,"BSTAR":0.00015488,"MEAN_MOTION_DOT":7.0e-6,"MEAN_MOTION_DDOT":0},{"OBJECT_NAME":"TISAT 1","OBJECT_ID":"2010-035E","EPOCH":"2026-04-25T19:39:55.021248","MEAN_MOTION":15.29673687,"ECCENTRICITY":0.0004712,"INCLINATION":98.0676,"RA_OF_ASC_NODE":57.8202,"ARG_OF_PERICENTER":80.5731,"MEAN_ANOMALY":279.604,"EPHEMERIS_TYPE":0,"CLASSIFICATION_TYPE":"U","NORAD_CAT_ID":36799,"ELEMENT_SET_NO":999,"REV_AT_EPOCH":85969,"BSTAR":0.00079083,"MEAN_MOTION_DOT":0.00022703,"MEAN_MOTION_DDOT":0},{"OBJECT_NAME":"AEROCUBE 4.5A","OBJECT_ID":"2012-048K","EPOCH":"2026-04-25T15:02:58.258752","MEAN_MOTION":15.72727017,"ECCENTRICITY":0.0025573,"INCLINATION":64.6323,"RA_OF_ASC_NODE":215.3959,"ARG_OF_PERICENTER":213.9715,"MEAN_ANOMALY":145.98,"EPHEMERIS_TYPE":0,"CLASSIFICATION_TYPE":"U","NORAD_CAT_ID":38767,"ELEMENT_SET_NO":999,"REV_AT_EPOCH":36434,"BSTAR":0.0010003,"MEAN_MOTION_DOT":0.00140462,"MEAN_MOTION_DDOT":0},{"OBJECT_NAME":"STRAND-1","OBJECT_ID":"2013-009E","EPOCH":"2026-04-25T18:28:05.720160","MEAN_MOTION":14.37130836,"ECCENTRICITY":0.0009254,"INCLINATION":98.3915,"RA_OF_ASC_NODE":297.2968,"ARG_OF_PERICENTER":34.9138,"MEAN_ANOMALY":325.2654,"EPHEMERIS_TYPE":0,"CLASSIFICATION_TYPE":"U","NORAD_CAT_ID":39090,"ELEMENT_SET_NO":999,"REV_AT_EPOCH":68953,"BSTAR":9.9175e-5,"MEAN_MOTION_DOT":2.52e-6,"MEAN_MOTION_DDOT":0},{"OBJECT_NAME":"BRITE-AUSTRIA","OBJECT_ID":"2013-009F","EPOCH":"2026-04-25T11:33:07.212672","MEAN_MOTION":14.3652013,"ECCENTRICITY":0.0010956,"INCLINATION":98.3985,"RA_OF_ASC_NODE":296.2244,"ARG_OF_PERICENTER":42.985,"MEAN_ANOMALY":317.2191,"EPHEMERIS_TYPE":0,"CLASSIFICATION_TYPE":"U","NORAD_CAT_ID":39091,"ELEMENT_SET_NO":999,"REV_AT_EPOCH":68948,"BSTAR":7.2827e-5,"MEAN_MOTION_DOT":1.71e-6,"MEAN_MOTION_DDOT":0},{"OBJECT_NAME":"NEE-01 PEGASO","OBJECT_ID":"2013-018B","EPOCH":"2026-04-25T08:06:55.512000","MEAN_MOTION":14.93393609,"ECCENTRICITY":0.0012068,"INCLINATION":98.1148,"RA_OF_ASC_NODE":257.775,"ARG_OF_PERICENTER":343.8983,"MEAN_ANOMALY":16.1851,"EPHEMERIS_TYPE":0,"CLASSIFICATION_TYPE":"U","NORAD_CAT_ID":39151,"ELEMENT_SET_NO":999,"REV_AT_EPOCH":70281,"BSTAR":0.00027052,"MEAN_MOTION_DOT":2.782e-5,"MEAN_MOTION_DDOT":0},{"OBJECT_NAME":"POPACS 2","OBJECT_ID":"2013-055E","EPOCH":"2026-04-25T16:23:25.850112","MEAN_MOTION":14.89898678,"ECCENTRICITY":0.042218,"INCLINATION":80.994,"RA_OF_ASC_NODE":204.2358,"ARG_OF_PERICENTER":2.5925,"MEAN_ANOMALY":357.7332,"EPHEMERIS_TYPE":0,"CLASSIFICATION_TYPE":"U","NORAD_CAT_ID":39269,"ELEMENT_SET_NO":999,"REV_AT_EPOCH":65539,"BSTAR":0.00028065,"MEAN_MOTION_DOT":0.00016412,"MEAN_MOTION_DDOT":0},{"OBJECT_NAME":"POPACS 3","OBJECT_ID":"2013-055F","EPOCH":"2026-04-25T10:59:47.229792","MEAN_MOTION":14.54824082,"ECCENTRICITY":0.0555578,"INCLINATION":81.0004,"RA_OF_ASC_NODE":286.311,"ARG_OF_PERICENTER":230.382,"MEAN_ANOMALY":124.7084,"EPHEMERIS_TYPE":0,"CLASSIFICATION_TYPE":"U","NORAD_CAT_ID":39270,"ELEMENT_SET_NO":999,"REV_AT_EPOCH":63088,"BSTAR":0.00023186,"MEAN_MOTION_DOT":9.566e-5,"MEAN_MOTION_DDOT":0},{"OBJECT_NAME":"ZACUBE-1 (TSHEPISOSAT)","OBJECT_ID":"2013-066B","EPOCH":"2026-04-25T21:01:04.058688","MEAN_MOTION":15.007441,"ECCENTRICITY":0.0044223,"INCLINATION":97.8121,"RA_OF_ASC_NODE":77.9322,"ARG_OF_PERICENTER":67.9289,"MEAN_ANOMALY":292.6622,"EPHEMERIS_TYPE":0,"CLASSIFICATION_TYPE":"U","NORAD_CAT_ID":39417,"ELEMENT_SET_NO":999,"REV_AT_EPOCH":67288,"BSTAR":0.0004582,"MEAN_MOTION_DOT":5.869e-5,"MEAN_MOTION_DDOT":0}]
